[{"OBJECT_NAME":"HEAD-3B","OBJECT_ID":"2023-121B","EPOCH":"2026-03-09T23:22:36.568704","MEAN_MOTION":14.6140341,"ECCENTRICITY":0.00038894,"INCLINATION":45.0025,"RA_OF_ASC_NODE":73.4072,"ARG_OF_PERICENTER":120.6786,"MEAN_ANOMALY":239.4455,"EPHEMERIS_TYPE":0,"CLASSIFICATION_TYPE":"U","NORAD_CAT_ID":57627,"ELEMENT_SET_NO":999,"REV_AT_EPOCH":13715,"BSTAR":0.00022518075,"MEAN_MOTION_DOT":9.66e-6,"MEAN_MOTION_DDOT":0},{"OBJECT_NAME":"FENGYUN 1C DEB","OBJECT_ID":"1999-025XH","EPOCH":"2026-03-09T04:51:00.300384","MEAN_MOTION":14.6314889,"ECCENTRICITY":0.00290278,"INCLINATION":99.1016,"RA_OF_ASC_NODE":265.8881,"ARG_OF_PERICENTER":248.0256,"MEAN_ANOMALY":111.7857,"EPHEMERIS_TYPE":0,"CLASSIFICATION_TYPE":"U","NORAD_CAT_ID":30248,"ELEMENT_SET_NO":999,"REV_AT_EPOCH":98691,"BSTAR":0.0041627433,"MEAN_MOTION_DOT":0.00021545,"MEAN_MOTION_DDOT":0}]
